NORAD_CAT_ID,OBJECT_NAME,OBJECT_TYPE,EPOCH,MEAN_MOTION,ECCENTRICITY,INCLINATION,RA_OF_ASC_NODE,ARG_OF_PERICENTER,MEAN_ANOMALY,BSTAR,MEAN_MOTION_DOT,MEAN_MOTION_DDOT,TLE_LINE0,TLE_LINE1,TLE_LINE2,SEMIMAJOR_AXIS,PERIOD,APOGEE,PERIGEE,DECAYED
52656.0,STARLINK-4004,PAYLOAD,2023-11-13 09:58:12,15.08864505,0.0001442,53.2178,357.6961,88.3066,271.8091,0.00096408,0.00015099,0.0,0 STARLINK-4004,1 52656U 22053A   23317.41542540  .00015099  00000-0  96408-3 0  9991,2 52656  53.2178 357.6961 0001442  88.3066 271.8091 15.08864505 83204,6917.805,95.436,540.668,538.673,0.0
52656.0,STARLINK-4004,PAYLOAD,2023-11-13 19:30:31,15.08852464,0.0001509,53.2183,355.9097,89.5085,270.608,0.00041706,6.358e-05,0.0,0 STARLINK-4004,1 52656U 22053A   23317.81286476  .00006358  00000-0  41706-3 0  9997,2 52656  53.2183 355.9097 0001509  89.5085 270.6080 15.08852464 83261,6917.842,95.437,540.751,538.663,0.0
52656.0,STARLINK-4004,PAYLOAD,2023-11-14 11:24:23,15.08842915,0.000167,53.2188,352.94,100.5878,259.5303,3.6637e-05,2.95e-06,0.0,0 STARLINK-4004,1 52656U 22053A   23318.47526678  .00000295  00000-0  36637-4 0  9993,2 52656  53.2188 352.9400 0001670 100.5878 259.5303 15.08842915 83369,6917.871,95.437,540.892,538.581,0.0
52656.0,STARLINK-4004,PAYLOAD,2023-11-14 19:21:18,15.0884089,0.0001447,53.2178,351.4515,91.7894,268.3264,3.7925e-05,3.16e-06,0.0,0 STARLINK-4004,1 52656U 22053A   23318.80646814  .00000316  00000-0  37925-4 0  9990,2 52656  53.2178 351.4515 0001447  91.7894 268.3264 15.08840890 83410,6917.878,95.437,540.744,538.742,0.0
52656.0,STARLINK-4004,PAYLOAD,2023-11-15 01:42:51,15.08837448,0.0001547,53.2176,350.2624,93.3933,266.7236,-3.3301e-05,-8.18e-06,0.0,0 STARLINK-4004,1 52656U 22053A   23319.07143029 -.00000818  00000-0 -33301-4 0  9993,2 52656  53.2176 350.2624 0001547  93.3933 266.7236 15.08837448 83459,6917.888,95.438,540.823,538.683,0.0
52656.0,STARLINK-4004,PAYLOAD,2023-11-15 09:39:47,15.08835895,0.0001512,53.2172,348.7751,93.6198,266.4967,-2.8707e-05,-7.45e-06,0.0,0 STARLINK-4004,1 52656U 22053A   23319.40263167 -.00000745  00000-0 -28707-4 0  9999,2 52656  53.2172 348.7751 0001512  93.6198 266.4967 15.08835895 83504,6917.893,95.438,540.804,538.712,0.0
52656.0,STARLINK-4004,PAYLOAD,2023-11-15 19:12:06,15.08838855,0.0001527,53.2169,346.9896,89.4574,270.6594,-9.4737e-06,-4.39e-06,0.0,0 STARLINK-4004,1 52656U 22053A   23319.80007286 -.00000439  00000-0 -94737-5 0  9998,2 52656  53.2169 346.9896 0001527  89.4574 270.6594 15.08838855 83565,6917.884,95.438,540.805,538.693,0.0
52656.0,STARLINK-4004,PAYLOAD,2023-11-16 07:55:11,15.08834456,0.0001546,53.217,344.6108,91.8888,268.2281,7.6842e-05,9.35e-06,0.0,0 STARLINK-4004,1 52656U 22053A   23320.32999798  .00000935  00000-0  76842-4 0  9990,2 52656  53.2170 344.6108 0001546  91.8888 268.2281 15.08834456 83642,6917.897,95.438,540.832,538.693,0.0
52656.0,STARLINK-4004,PAYLOAD,2023-11-16 09:30:34,15.08836268,0.0001465,53.2169,344.3131,90.1792,269.9368,7.9155e-05,9.72e-06,0.0,0 STARLINK-4004,1 52656U 22053A   23320.39623703  .00000972  00000-0  79155-4 0  9998,2 52656  53.2169 344.3131 0001465  90.1792 269.9368 15.08836268 83657,6917.892,95.438,540.77,538.743,0.0
52656.0,STARLINK-4004,PAYLOAD,2023-11-16 19:02:53,15.08840834,0.0001467,53.2171,342.5293,90.9555,269.1605,0.00013689,1.891e-05,0.0,0 STARLINK-4004,1 52656U 22053A   23320.79367608  .00001891  00000-0  13689-3 0  9991,2 52656  53.2171 342.5293 0001467  90.9555 269.1605 15.08840834 83713,6917.878,95.438,540.758,538.728,0.0
52656.0,STARLINK-4004,PAYLOAD,2023-11-17 07:45:58,15.08845983,0.0001468,53.2169,340.1505,89.2431,270.873,0.00020646,3e-05,0.0,0 STARLINK-4004,1 52656U 22053A   23321.32359431  .00003000  00000-0  20646-3 0  9991,2 52656  53.2169 340.1505 0001468  89.2431 270.8730 15.08845983 83791,6917.862,95.437,540.743,538.712,0.0
52656.0,STARLINK-4004,PAYLOAD,2023-11-17 18:53:40,15.08841212,0.0001296,53.2167,338.0676,100.189,259.9249,9.8144e-05,1.274e-05,0.0,0 STARLINK-4004,1 52656U 22053A   23321.78727628  .00001274  00000-0  98144-4 0  9998,2 52656  53.2167 338.0676 0001296 100.1890 259.9249 15.08841212 83867,6917.877,95.437,540.638,538.845,0.0
52656.0,STARLINK-4004,PAYLOAD,2023-11-18 07:36:46,15.08839614,0.0001353,53.2176,335.6889,96.7364,263.3782,9.0168e-05,1.147e-05,0.0,0 STARLINK-4004,1 52656U 22053A   23322.31719960  .00001147  00000-0  90168-4 0  9995,2 52656  53.2176 335.6889 0001353  96.7364 263.3782 15.08839614 83949,6917.882,95.438,540.683,538.811,0.0
52656.0,STARLINK-4004,PAYLOAD,2023-11-19 04:16:46,15.08845805,0.0001403,53.2176,331.8223,100.2253,259.8898,6.1102e-05,6.85e-06,0.0,0 STARLINK-4004,1 52656U 22053A   23323.17831386  .00000685  00000-0  61102-4 0  9999,2 52656  53.2176 331.8223 0001403 100.2253 259.8898 15.08845805 84075,6917.863,95.437,540.698,538.757,0.0
52656.0,STARLINK-4004,PAYLOAD,2023-11-19 10:38:18,15.0885927,0.0001549,53.2181,330.6344,89.5887,270.5283,2.1243e-05,5e-07,0.0,0 STARLINK-4004,1 52656U 22053A   23323.44326678  .00000050  00000-0  21243-4 0  9990,2 52656  53.2181 330.6344 0001549  89.5887 270.5283 15.08859270 84119,6917.821,95.436,540.758,538.615,0.0
52656.0,STARLINK-4004,PAYLOAD,2023-11-20 04:07:33,15.08841994,0.0001463,53.2183,327.363,94.6695,265.4465,0.00012638,1.724e-05,0.0,0 STARLINK-4004,1 52656U 22053A   23324.17191471  .00001724  00000-0  12638-3 0  9998,2 52656  53.2183 327.3630 0001463  94.6695 265.4465 15.08841994 84222,6917.874,95.437,540.751,538.727,0.0
52656.0,STARLINK-4004,PAYLOAD,2023-11-20 07:18:19,15.08846491,0.0001434,53.2177,326.7686,90.0726,270.043,0.0001817,2.605e-05,0.0,0 STARLINK-4004,1 52656U 22053A   23324.30439248  .00002605  00000-0  18170-3 0  9996,2 52656  53.2177 326.7686 0001434  90.0726 270.0430 15.08846491 84245,6917.861,95.437,540.718,538.734,0.0
52656.0,STARLINK-4004,PAYLOAD,2023-11-20 16:50:38,15.08843527,0.0001456,53.2168,324.9846,87.7353,272.3806,7.4008e-05,8.9e-06,0.0,0 STARLINK-4004,1 52656U 22053A   23324.70183347  .00000890  00000-0  74008-4 0  9993,2 52656  53.2168 324.9846 0001456  87.7353 272.3806 15.08843527 84302,6917.87,95.437,540.742,538.727,0.0
52656.0,STARLINK-4004,PAYLOAD,2023-11-21 07:09:06,15.08846187,0.0001525,53.2167,322.3096,97.698,262.4185,5.4016e-05,5.72e-06,0.0,0 STARLINK-4004,1 52656U 22053A   23325.29799061  .00000572  00000-0  54016-4 0  9998,2 52656  53.2167 322.3096 0001525  97.6980 262.4185 15.08846187 84397,6917.861,95.437,540.781,538.672,0.0
52656.0,STARLINK-4004,PAYLOAD,2023-11-22 03:49:07,15.08838571,0.0002186,53.2166,318.4436,104.2029,255.9206,-8.9229e-06,-4.3e-06,0.0,0 STARLINK-4004,1 52656U 22053A   23326.15911641 -.00000430  00000-0 -89229-5 0  9994,2 52656  53.2166 318.4436 0002186 104.2029 255.9206 15.08838571 84527,6917.885,95.438,541.262,538.238,0.0
52656.0,STARLINK-4004,PAYLOAD,2023-11-22 08:35:16,15.08844118,0.0001518,53.2167,317.5501,92.3692,267.7474,0.00010348,1.359e-05,0.0,0 STARLINK-4004,1 52656U 22053A   23326.35783442  .00001359  00000-0  10348-3 0  9995,2 52656  53.2167 317.5501 0001518  92.3692 267.7474 15.08844118 84557,6917.868,95.437,540.783,538.683,0.0
52656.0,STARLINK-4004,PAYLOAD,2023-11-23 08:26:03,15.08849755,0.000171,53.2168,313.0863,88.4506,271.6682,0.00032218,4.845e-05,0.0,0 STARLINK-4004,1 52656U 22053A   23327.35143456  .00004845  00000-0  32218-3 0  9994,2 52656  53.2168 313.0863 0001710  88.4506 271.6682 15.08849755 84708,6917.851,95.437,540.899,538.533,0.0
52656.0,STARLINK-4004,PAYLOAD,2023-11-24 03:30:42,15.08834405,0.0001592,53.2177,309.5158,91.0383,269.0791,2.4135e-05,9.6e-07,0.0,0 STARLINK-4004,1 52656U 22053A   23328.14632145  .00000096  00000-0  24135-4 0  9994,2 52656  53.2177 309.5158 0001592  91.0383 269.0791 15.08834405 84827,6917.897,95.438,540.864,538.661,0.0
52656.0,STARLINK-4004,PAYLOAD,2023-11-24 06:41:28,15.08838413,0.0001729,53.2164,308.9233,90.1049,270.0141,0.00013432,1.85e-05,0.0,0 STARLINK-4004,1 52656U 22053A   23328.27880151  .00001850  00000-0  13432-3 0  9996,2 52656  53.2164 308.9233 0001729  90.1049 270.0141 15.08838413 84847,6917.885,95.438,540.946,538.554,0.0
52656.0,STARLINK-4004,PAYLOAD,2023-11-24 22:35:20,15.08839551,0.000166,53.2157,305.9544,87.0376,273.0806,0.0001029,1.35e-05,0.0,0 STARLINK-4004,1 52656U 22053A   23328.94120574  .00001350  00000-0  10290-3 0  9990,2 52656  53.2157 305.9544 0001660  87.0376 273.0806 15.08839551 84949,6917.882,95.438,540.895,538.598,0.0
52656.0,STARLINK-4004,PAYLOAD,2023-11-25 04:56:52,15.08848574,0.0001599,53.2165,304.7632,103.3297,256.7873,0.00045971,7.038e-05,0.0,0 STARLINK-4004,1 52656U 22053A   23329.20616220  .00007038  00000-0  45971-3 0  9991,2 52656  53.2165 304.7632 0001599 103.3297 256.7873 15.08848574 84989,6917.854,95.437,540.825,538.613,0.0
52656.0,STARLINK-4004,PAYLOAD,2023-11-25 22:26:06,15.08856758,0.0001496,53.2177,301.4935,103.8553,256.2605,0.00061147,9.461e-05,0.0,0 STARLINK-4004,1 52656U 22053A   23329.93480175  .00009461  00000-0  61147-3 0  9994,2 52656  53.2177 301.4935 0001496 103.8553 256.2605 15.08856758 85092,6917.829,95.436,540.729,538.659,0.0
52656.0,STARLINK-4004,PAYLOAD,2023-11-26 04:47:39,15.08868899,0.0001663,53.2163,300.3013,81.3795,278.7386,0.0011142,0.00017503,0.0,0 STARLINK-4004,1 52656U 22053A   23330.19975884  .00017503  00000-0  11142-2 0  9995,2 52656  53.2163 300.3013 0001663  81.3795 278.7386 15.08868899 85135,6917.792,95.436,540.807,538.507,0.0
52656.0,STARLINK-4004,PAYLOAD,2023-11-27 03:03:04,15.0881093,0.0001567,53.2181,296.141,86.3093,273.8078,-0.00063034,-0.00010298,0.0,0 STARLINK-4004,1 52656U 22053A   23331.12713194 -.00010298  00000-0 -63034-3 0  9997,2 52656  53.2181 296.1410 0001567  86.3093 273.8078 15.08810930 85279,6917.969,95.439,540.918,538.75,0.0
52656.0,STARLINK-4004,PAYLOAD,2023-11-27 04:38:27,15.08815308,0.0001615,53.2172,295.8423,94.6371,265.4805,-0.0004924,-8.111e-05,0.0,0 STARLINK-4004,1 52656U 22053A   23331.19337302 -.00008111  00000-0 -49240-3 0  9991,2 52656  53.2172 295.8423 0001615  94.6371 265.4805 15.08815308 85284,6917.956,95.439,540.938,538.704,0.0
